EAGLET-I                
1 43790U 18099AJ  26068.68676861  .00006017  00000+0  35262-3 0  9994
2 43790  97.4369 120.9821 0010486 336.8524  23.2233 15.12108144397298
STARLINK-2722           
1 48472U 21040AW  26068.61332830  .00013092  00000+0  85362-3 0  9991
2 48472  53.0609 191.8446 0000864  96.1910 263.9178 15.08204788266471
